ORBCOMM FM37            
1 33064U 08031E   25301.55814972  .00002902  00000+0  40405-3 0  9998
2 33064  48.4391  69.3550 0005862 232.0277 227.3302 14.80325790933800
ORBCOMM FM40            
1 33065U 08031F   25301.58220230  .00003685  00000+0  47751-3 0  9990
2 33065  48.4415  50.9799 0007025 246.7118 126.8165 14.82750094933955
VESSELSAT 1             
1 37840U 11058C   25301.51100568  .00000426  00000+0  87443-4 0  9995
2 37840  19.9634   7.1243 0013505 212.7262 147.2305 14.11384117725163
ORBCOMM FM109           
1 40086U 14040A   25301.58279856  .00000961  00000+0  24159-3 0  9997
2 40086  47.0019 106.1880 0002182 237.4982 122.5693 14.58417063600534
ORBCOMM FM107           
1 40087U 14040B   25301.53597830  .00001064  00000+0  26319-3 0  9993
2 40087  47.0036 107.3179 0001310 195.2238 164.8608 14.58493688600605
ORBCOMM FM106           
1 40088U 14040C   25301.28043580  .00001909  00000+0  34687-3 0  9999
2 40088  47.0603 279.9212 0017368 323.5201  36.4506 14.69837569603051
ORBCOMM FM111           
1 40089U 14040D   25301.55108178  .00004918  00000+0  55933-3 0  9995
2 40089  46.9993 110.5594 0028664 113.0130 247.3795 14.87252866610073
ORBCOMM FM104           
1 40090U 14040E   25301.60302537  .00000892  00000+0  23441-3 0  9994
2 40090  47.0034 142.2249 0015868  94.9662 265.3035 14.56884646600070
